NUSAT-47                
1 66743U 25276CF  26194.75265821  .00003489  00000+0  16244-3 0  9999
2 66743  97.4186 267.9412 0000310 206.5750 153.5469 15.20574992 34467
NUSAT-53 (JANE GOODALL) 
1 68432U 26067S   26194.88407624  .00003225  00000+0  15812-3 0  9996
2 68432  97.4572 153.0211 0000787 352.5175   7.6048 15.18841900 15998
NUSAT-54 (BRANCA MARQU*)
1 68442U 26067AC  26194.87495809  .00002879  00000+0  14497-3 0  9990
2 68442  97.4554 152.8572 0003965   4.4662 355.6606 15.17988853 15984
