{"fetched_at":"2026-07-14T06:34:55.932Z","source":"https://celestrak.org/NORAD/elements/gp.php?NAME=NUSAT&FORMAT=JSON","constellation":"satellogic","records":[{"OBJECT_NAME":"NUSAT-47","OBJECT_ID":"2025-276CF","EPOCH":"2026-07-13T18:03:49.669344","CLASSIFICATION_TYPE":"U","MEAN_MOTION":15.20574992,"ECCENTRICITY":0.000031,"INCLINATION":97.4186,"RA_OF_ASC_NODE":267.9412,"ARG_OF_PERICENTER":206.575,"MEAN_ANOMALY":153.5469,"EPHEMERIS_TYPE":0,"NORAD_CAT_ID":66743,"ELEMENT_SET_NO":999,"REV_AT_EPOCH":3446,"BSTAR":0.00016244,"MEAN_MOTION_DOT":0.00003489,"MEAN_MOTION_DDOT":0},{"OBJECT_NAME":"NUSAT-53 (JANE GOODALL)","OBJECT_ID":"2026-067S","EPOCH":"2026-07-13T21:13:04.187136","CLASSIFICATION_TYPE":"U","MEAN_MOTION":15.188419,"ECCENTRICITY":0.0000787,"INCLINATION":97.4572,"RA_OF_ASC_NODE":153.0211,"ARG_OF_PERICENTER":352.5175,"MEAN_ANOMALY":7.6048,"EPHEMERIS_TYPE":0,"NORAD_CAT_ID":68432,"ELEMENT_SET_NO":999,"REV_AT_EPOCH":1599,"BSTAR":0.00015812,"MEAN_MOTION_DOT":0.00003225,"MEAN_MOTION_DDOT":0},{"OBJECT_NAME":"NUSAT-54 (BRANCA MARQUES)","OBJECT_ID":"2026-067AC","EPOCH":"2026-07-13T20:59:56.378976","CLASSIFICATION_TYPE":"U","MEAN_MOTION":15.17988853,"ECCENTRICITY":0.0003965,"INCLINATION":97.4554,"RA_OF_ASC_NODE":152.8572,"ARG_OF_PERICENTER":4.4662,"MEAN_ANOMALY":355.6606,"EPHEMERIS_TYPE":0,"NORAD_CAT_ID":68442,"ELEMENT_SET_NO":999,"REV_AT_EPOCH":1598,"BSTAR":0.00014497,"MEAN_MOTION_DOT":0.00002879,"MEAN_MOTION_DDOT":0}]}
